LEMUR-2-MYRA            
1 66787U 25276EC  26193.73586926  .00003624  00000+0  29064-3 0  9991
2 66787  97.5226 263.7829 0018605  61.6382 298.6715 15.00572080 34047
LEMUR-2 FIKRETDENGIZ    
1 67363U 26004A   26193.54607806  .00002449  00000+0  26918-3 0  9991
2 67363  97.8023 191.7179 0010323  63.2919 296.9354 14.88505387 27051
TWILIGHT-1 OBJECT B     
1 67364U 26004B   26193.51468494  .00000957  00000+0  11076-3 0  9998
2 67364  97.8073 191.6894 0009909  53.6882 306.5248 14.87787971 27050
LEMUR-2-MARIO-SOUSA     
1 67365U 26004C   26193.59352510  .00002445  00000+0  26743-3 0  9999
2 67365  97.7995 191.7596 0009974  64.2837 295.9409 14.88713778 27070
LEMUR-2-SONNENBLUME     
1 67367U 26004E   26193.46145310  .00001580  00000+0  17610-3 0  9997
2 67367  97.7992 191.6035 0009542  66.1852 294.0364 14.88444773 27059
LEMUR-2-WOBLER          
1 67368U 26004F   26193.58561553  .00001854  00000+0  20439-3 0  9999
2 67368  97.8046 191.8741 0009638  57.3201 302.8944 14.88686453 27070
LEMUR-2-GRAM-E-SUE      
1 67370U 26004H   26193.57756067  .00001275  00000+0  14278-3 0  9998
2 67370  97.7985 191.7344 0008718  68.0241 292.1901 14.88582014 27075
LEMUR-2-KATIE           
1 67387U 26004AA  26193.53743512  .00002975  00000+0  31244-3 0  9993
2 67387  97.8041 192.2374 0003700  40.2246 319.9245 14.90236221 27088
LEMUR-2-HCS-BAZUS       
1 67388U 26004AB  26193.53581399  .00001566  00000+0  16706-3 0  9998
2 67388  97.8037 192.2146 0003217  39.3567 320.7884 14.90252616 27084
